[
  {
    "Lattitude": -37.7996,
    "Longtitude": 144.9984,
    "Postcode": 3067,
    "Regionname": "Northern Metropolitan",
    "Suburb": "Abbotsford",
    "Suburb_Cap": "ABBOTSFORD"
  },
  {
    "Lattitude": -37.718,
    "Longtitude": 144.878,
    "Postcode": 3042,
    "Regionname": "Western Metropolitan",
    "Suburb": "Airport West",
    "Suburb_Cap": "AIRPORT WEST"
  },
  {
    "Lattitude": -37.8459,
    "Longtitude": 144.9555,
    "Postcode": 3206,
    "Regionname": "Southern Metropolitan",
    "Suburb": "Albert Park",
    "Suburb_Cap": "ALBERT PARK"
  },
  {
    "Lattitude": -37.7707,
    "Longtitude": 145.0318,
    "Postcode": 3078,
    "Regionname": "Northern Metropolitan",
    "Suburb": "Alphington",
    "Suburb_Cap": "ALPHINGTON"
  },
  {
    "Lattitude": -37.87,
    "Longtitude": 144.825,
    "Postcode": 3018,
    "Regionname": "Western Metropolitan",
    "Suburb": "Altona",
    "Suburb_Cap": "ALTONA"
  },
  {
    "Lattitude": -37.8388,
    "Longtitude": 144.8567,
    "Postcode": 3025,
    "Regionname": "Western Metropolitan",
    "Suburb": "Altona North",
    "Suburb_Cap": "ALTONA NORTH"
  },
  {
    "Lattitude": -37.8543,
    "Longtitude": 145.0262,
    "Postcode": 3143,
    "Regionname": "Southern Metropolitan",
    "Suburb": "Armadale",
    "Suburb_Cap": "ARMADALE"
  },
  {
    "Lattitude": -37.7756,
    "Longtitude": 144.9165,
    "Postcode": 3032,
    "Regionname": "Western Metropolitan",
    "Suburb": "Ascot Vale",
    "Suburb_Cap": "ASCOT VALE"
  },
  {
    "Lattitude": -37.8669,
    "Longtitude": 145.0767,
    "Postcode": 3147,
    "Regionname": "Southern Metropolitan",
    "Suburb": "Ashburton",
    "Suburb_Cap": "ASHBURTON"
  },
  {
    "Lattitude": -37.8693,
    "Longtitude": 145.1082,
    "Postcode": 3147,
    "Regionname": "Southern Metropolitan",
    "Suburb": "Ashwood",
    "Suburb_Cap": "ASHWOOD"
  },
  {
    "Lattitude": -37.7677,
    "Longtitude": 144.8674,
    "Postcode": 3034,
    "Regionname": "Western Metropolitan",
    "Suburb": "Avondale Heights",
    "Suburb_Cap": "AVONDALE HEIGHTS"
  },
  {
    "Lattitude": -37.8668,
    "Longtitude": 144.9928,
    "Postcode": 3183,
    "Regionname": "Southern Metropolitan",
    "Suburb": "Balaclava",
    "Suburb_Cap": "BALACLAVA"
  },
  {
    "Lattitude": -37.8094,
    "Longtitude": 145.0807,
    "Postcode": 3103,
    "Regionname": "Southern Metropolitan",
    "Suburb": "Balwyn",
    "Suburb_Cap": "BALWYN"
  },
  {
    "Lattitude": -37.7966,
    "Longtitude": 145.1021,
    "Postcode": 3104,
    "Regionname": "Southern Metropolitan",
    "Suburb": "Balwyn North",
    "Suburb_Cap": "BALWYN NORTH"
  },
  {
    "Lattitude": -37.9165,
    "Longtitude": 145.0259,
    "Postcode": 3204,
    "Regionname": "Southern Metropolitan",
    "Suburb": "Bentleigh",
    "Suburb_Cap": "BENTLEIGH"
  },
  {
    "Lattitude": -37.9305,
    "Longtitude": 145.0547,
    "Postcode": 3165,
    "Regionname": "Southern Metropolitan",
    "Suburb": "Bentleigh East",
    "Suburb_Cap": "BENTLEIGH EAST"
  },
  {
    "Lattitude": -37.8151,
    "Longtitude": 145.135,
    "Postcode": 3128,
    "Regionname": "Eastern Metropolitan",
    "Suburb": "Box Hill",
    "Suburb_Cap": "BOX HILL"
  },
  {
    "Lattitude": -37.7824,
    "Longtitude": 144.8469,
    "Postcode": 3019,
    "Regionname": "Western Metropolitan",
    "Suburb": "Braybrook",
    "Suburb_Cap": "BRAYBROOK"
  },
  {
    "Lattitude": -37.9159,
    "Longtitude": 145.0068,
    "Postcode": 3186,
    "Regionname": "Southern Metropolitan",
    "Suburb": "Brighton",
    "Suburb_Cap": "BRIGHTON"
  },
  {
    "Lattitude": -37.9205,
    "Longtitude": 145.0122,
    "Postcode": 3187,
    "Regionname": "Southern Metropolitan",
    "Suburb": "Brighton East",
    "Suburb_Cap": "BRIGHTON EAST"
  },
  {
    "Lattitude": -37.7593,
    "Longtitude": 144.9652,
    "Postcode": 3056,
    "Regionname": "Northern Metropolitan",
    "Suburb": "Brunswick",
    "Suburb_Cap": "BRUNSWICK"
  },
  {
    "Lattitude": -37.768,
    "Longtitude": 144.9408,
    "Postcode": 3055,
    "Regionname": "Northern Metropolitan",
    "Suburb": "Brunswick West",
    "Suburb_Cap": "BRUNSWICK WEST"
  },
  {
    "Lattitude": -37.7599,
    "Longtitude": 145.0849,
    "Postcode": 3105,
    "Regionname": "Eastern Metropolitan",
    "Suburb": "Bulleen",
    "Suburb_Cap": "BULLEEN"
  },
  {
    "Lattitude": -37.848,
    "Longtitude": 145.098,
    "Postcode": 3125,
    "Regionname": "Southern Metropolitan",
    "Suburb": "Burwood",
    "Suburb_Cap": "BURWOOD"
  },
  {
    "Lattitude": -37.8286,
    "Longtitude": 145.0686,
    "Postcode": 3124,
    "Regionname": "Southern Metropolitan",
    "Suburb": "Camberwell",
    "Suburb_Cap": "CAMBERWELL"
  },
  {
    "Lattitude": -37.8186,
    "Longtitude": 145.0706,
    "Postcode": 3126,
    "Regionname": "Southern Metropolitan",
    "Suburb": "Canterbury",
    "Suburb_Cap": "CANTERBURY"
  },
  {
    "Lattitude": -37.7871,
    "Longtitude": 144.9766,
    "Postcode": 3054,
    "Regionname": "Northern Metropolitan",
    "Suburb": "Carlton North",
    "Suburb_Cap": "CARLTON NORTH"
  },
  {
    "Lattitude": -37.897,
    "Longtitude": 145.0623,
    "Postcode": 3163,
    "Regionname": "Southern Metropolitan",
    "Suburb": "Carnegie",
    "Suburb_Cap": "CARNEGIE"
  },
  {
    "Lattitude": -37.8865,
    "Longtitude": 145.0302,
    "Postcode": 3162,
    "Regionname": "Southern Metropolitan",
    "Suburb": "Caulfield",
    "Suburb_Cap": "CAULFIELD"
  },
  {
    "Lattitude": -37.8678,
    "Longtitude": 145.027,
    "Postcode": 3161,
    "Regionname": "Southern Metropolitan",
    "Suburb": "Caulfield North",
    "Suburb_Cap": "CAULFIELD NORTH"
  },
  {
    "Lattitude": -37.8896,
    "Longtitude": 145.0307,
    "Postcode": 3162,
    "Regionname": "Southern Metropolitan",
    "Suburb": "Caulfield South",
    "Suburb_Cap": "CAULFIELD SOUTH"
  },
  {
    "Lattitude": -37.8786,
    "Longtitude": 145.1015,
    "Postcode": 3148,
    "Regionname": "Southern Metropolitan",
    "Suburb": "Chadstone",
    "Suburb_Cap": "CHADSTONE"
  },
  {
    "Lattitude": -37.7902,
    "Longtitude": 144.9894,
    "Postcode": 3068,
    "Regionname": "Northern Metropolitan",
    "Suburb": "Clifton Hill",
    "Suburb_Cap": "CLIFTON HILL"
  },
  {
    "Lattitude": -37.735,
    "Longtitude": 144.9589,
    "Postcode": 3058,
    "Regionname": "Northern Metropolitan",
    "Suburb": "Coburg",
    "Suburb_Cap": "COBURG"
  },
  {
    "Lattitude": -37.7246,
    "Longtitude": 144.9828,
    "Postcode": 3058,
    "Regionname": "Northern Metropolitan",
    "Suburb": "Coburg North",
    "Suburb_Cap": "COBURG NORTH"
  },
  {
    "Lattitude": -37.7968,
    "Longtitude": 144.9891,
    "Postcode": 3066,
    "Regionname": "Northern Metropolitan",
    "Suburb": "Collingwood",
    "Suburb_Cap": "COLLINGWOOD"
  },
  {
    "Lattitude": -37.7779,
    "Longtitude": 145.127,
    "Postcode": 3108,
    "Regionname": "Eastern Metropolitan",
    "Suburb": "Doncaster",
    "Suburb_Cap": "DONCASTER"
  },
  {
    "Lattitude": -37.7674,
    "Longtitude": 145.0518,
    "Postcode": 3084,
    "Regionname": "Eastern Metropolitan",
    "Suburb": "Eaglemont",
    "Suburb_Cap": "EAGLEMONT"
  },
  {
    "Lattitude": -37.8845,
    "Longtitude": 144.999,
    "Postcode": 3185,
    "Regionname": "Southern Metropolitan",
    "Suburb": "Elsternwick",
    "Suburb_Cap": "ELSTERNWICK"
  },
  {
    "Lattitude": -37.8761,
    "Longtitude": 144.9871,
    "Postcode": 3184,
    "Regionname": "Southern Metropolitan",
    "Suburb": "Elwood",
    "Suburb_Cap": "ELWOOD"
  },
  {
    "Lattitude": -37.7585,
    "Longtitude": 144.9317,
    "Postcode": 3040,
    "Regionname": "Western Metropolitan",
    "Suburb": "Essendon",
    "Suburb_Cap": "ESSENDON"
  },
  {
    "Lattitude": -37.7428,
    "Longtitude": 144.9086,
    "Postcode": 3041,
    "Regionname": "Western Metropolitan",
    "Suburb": "Essendon North",
    "Suburb_Cap": "ESSENDON NORTH"
  },
  {
    "Lattitude": -37.7723,
    "Longtitude": 145.0179,
    "Postcode": 3078,
    "Regionname": "Northern Metropolitan",
    "Suburb": "Fairfield",
    "Suburb_Cap": "FAIRFIELD"
  },
  {
    "Lattitude": -37.7941,
    "Longtitude": 144.9802,
    "Postcode": 3065,
    "Regionname": "Northern Metropolitan",
    "Suburb": "Fitzroy",
    "Suburb_Cap": "FITZROY"
  },
  {
    "Lattitude": -37.7846,
    "Longtitude": 144.9785,
    "Postcode": 3068,
    "Regionname": "Northern Metropolitan",
    "Suburb": "Fitzroy North",
    "Suburb_Cap": "FITZROY NORTH"
  },
  {
    "Lattitude": -37.7835,
    "Longtitude": 144.9339,
    "Postcode": 3031,
    "Regionname": "Northern Metropolitan",
    "Suburb": "Flemington",
    "Suburb_Cap": "FLEMINGTON"
  },
  {
    "Lattitude": -37.7955,
    "Longtitude": 144.9063,
    "Postcode": 3011,
    "Regionname": "Western Metropolitan",
    "Suburb": "Footscray",
    "Suburb_Cap": "FOOTSCRAY"
  },
  {
    "Lattitude": -37.854,
    "Longtitude": 145.0832,
    "Postcode": 3146,
    "Regionname": "Southern Metropolitan",
    "Suburb": "Glen Iris",
    "Suburb_Cap": "GLEN IRIS"
  },
  {
    "Lattitude": -37.6972,
    "Longtitude": 144.9431,
    "Postcode": 3046,
    "Regionname": "Northern Metropolitan",
    "Suburb": "Glenroy",
    "Suburb_Cap": "GLENROY"
  },
  {
    "Lattitude": -37.709,
    "Longtitude": 144.8925,
    "Postcode": 3043,
    "Regionname": "Western Metropolitan",
    "Suburb": "Gowanbrae",
    "Suburb_Cap": "GOWANBRAE"
  },
  {
    "Lattitude": -37.711,
    "Longtitude": 144.9478,
    "Postcode": 3046,
    "Regionname": "Northern Metropolitan",
    "Suburb": "Hadfield",
    "Suburb_Cap": "HADFIELD"
  },
  {
    "Lattitude": -37.9355,
    "Longtitude": 145.0008,
    "Postcode": 3188,
    "Regionname": "Southern Metropolitan",
    "Suburb": "Hampton",
    "Suburb_Cap": "HAMPTON"
  },
  {
    "Lattitude": -37.9367,
    "Longtitude": 145.0322,
    "Postcode": 3188,
    "Regionname": "Southern Metropolitan",
    "Suburb": "Hampton East",
    "Suburb_Cap": "HAMPTON EAST"
  },
  {
    "Lattitude": -37.8344,
    "Longtitude": 145.0422,
    "Postcode": 3122,
    "Regionname": "Southern Metropolitan",
    "Suburb": "Hawthorn",
    "Suburb_Cap": "HAWTHORN"
  },
  {
    "Lattitude": -37.7501,
    "Longtitude": 145.0505,
    "Postcode": 3081,
    "Regionname": "Eastern Metropolitan",
    "Suburb": "Heidelberg Heights",
    "Suburb_Cap": "HEIDELBERG HEIGHTS"
  },
  {
    "Lattitude": -37.7354,
    "Longtitude": 145.0381,
    "Postcode": 3081,
    "Regionname": "Eastern Metropolitan",
    "Suburb": "Heidelberg West",
    "Suburb_Cap": "HEIDELBERG WEST"
  },
  {
    "Lattitude": -37.8931,
    "Longtitude": 145.0791,
    "Postcode": 3166,
    "Regionname": "Southern Metropolitan",
    "Suburb": "Hughesdale",
    "Suburb_Cap": "HUGHESDALE"
  },
  {
    "Lattitude": -37.77,
    "Longtitude": 145.0472,
    "Postcode": 3079,
    "Regionname": "Eastern Metropolitan",
    "Suburb": "Ivanhoe",
    "Suburb_Cap": "IVANHOE"
  },
  {
    "Lattitude": -37.7311,
    "Longtitude": 144.8257,
    "Postcode": 3021,
    "Regionname": "Western Metropolitan",
    "Suburb": "Kealba",
    "Suburb_Cap": "KEALBA"
  },
  {
    "Lattitude": -37.7402,
    "Longtitude": 144.8591,
    "Postcode": 3033,
    "Regionname": "Western Metropolitan",
    "Suburb": "Keilor East",
    "Suburb_Cap": "KEILOR EAST"
  },
  {
    "Lattitude": -37.7906,
    "Longtitude": 144.924,
    "Postcode": 3031,
    "Regionname": "Northern Metropolitan",
    "Suburb": "Kensington",
    "Suburb_Cap": "KENSINGTON"
  },
  {
    "Lattitude": -37.8102,
    "Longtitude": 145.0451,
    "Postcode": 3101,
    "Regionname": "Southern Metropolitan",
    "Suburb": "Kew",
    "Suburb_Cap": "KEW"
  },
  {
    "Lattitude": -37.7936,
    "Longtitude": 145.0566,
    "Postcode": 3102,
    "Regionname": "Southern Metropolitan",
    "Suburb": "Kew East",
    "Suburb_Cap": "KEW EAST"
  },
  {
    "Lattitude": -37.8407,
    "Longtitude": 145.0343,
    "Postcode": 3144,
    "Regionname": "Southern Metropolitan",
    "Suburb": "Kooyong",
    "Suburb_Cap": "KOOYONG"
  },
  {
    "Lattitude": -37.7832,
    "Longtitude": 144.8745,
    "Postcode": 3012,
    "Regionname": "Western Metropolitan",
    "Suburb": "Maidstone",
    "Suburb_Cap": "MAIDSTONE"
  },
  {
    "Lattitude": -37.8597,
    "Longtitude": 145.0318,
    "Postcode": 3144,
    "Regionname": "Southern Metropolitan",
    "Suburb": "Malvern",
    "Suburb_Cap": "MALVERN"
  },
  {
    "Lattitude": -37.8726,
    "Longtitude": 145.0396,
    "Postcode": 3145,
    "Regionname": "Southern Metropolitan",
    "Suburb": "Malvern East",
    "Suburb_Cap": "MALVERN EAST"
  },
  {
    "Lattitude": -37.774,
    "Longtitude": 144.8744,
    "Postcode": 3032,
    "Regionname": "Western Metropolitan",
    "Suburb": "Maribyrnong",
    "Suburb_Cap": "MARIBYRNONG"
  },
  {
    "Lattitude": -37.8111,
    "Longtitude": 144.9715,
    "Postcode": 3000,
    "Regionname": "Northern Metropolitan",
    "Suburb": "Melbourne",
    "Suburb_Cap": "MELBOURNE"
  },
  {
    "Lattitude": -37.8499,
    "Longtitude": 144.957,
    "Postcode": 3206,
    "Regionname": "Southern Metropolitan",
    "Suburb": "Middle Park",
    "Suburb_Cap": "MIDDLE PARK"
  },
  {
    "Lattitude": -37.8238,
    "Longtitude": 145.1135,
    "Postcode": 3127,
    "Regionname": "Eastern Metropolitan",
    "Suburb": "Mont Albert",
    "Suburb_Cap": "MONT ALBERT"
  },
  {
    "Lattitude": -37.7672,
    "Longtitude": 144.9209,
    "Postcode": 3039,
    "Regionname": "Western Metropolitan",
    "Suburb": "Moonee Ponds",
    "Suburb_Cap": "MOONEE PONDS"
  },
  {
    "Lattitude": -37.9376,
    "Longtitude": 145.0474,
    "Postcode": 3189,
    "Regionname": "Southern Metropolitan",
    "Suburb": "Moorabbin",
    "Suburb_Cap": "MOORABBIN"
  },
  {
    "Lattitude": -37.842,
    "Longtitude": 144.8902,
    "Postcode": 3015,
    "Regionname": "Western Metropolitan",
    "Suburb": "Newport",
    "Suburb_Cap": "NEWPORT"
  },
  {
    "Lattitude": -37.742,
    "Longtitude": 144.8885,
    "Postcode": 3042,
    "Regionname": "Western Metropolitan",
    "Suburb": "Niddrie",
    "Suburb_Cap": "NIDDRIE"
  },
  {
    "Lattitude": -37.7958,
    "Longtitude": 144.944,
    "Postcode": 3051,
    "Regionname": "Northern Metropolitan",
    "Suburb": "North Melbourne",
    "Suburb_Cap": "NORTH MELBOURNE"
  },
  {
    "Lattitude": -37.7662,
    "Longtitude": 145.0096,
    "Postcode": 3070,
    "Regionname": "Northern Metropolitan",
    "Suburb": "Northcote",
    "Suburb_Cap": "NORTHCOTE"
  },
  {
    "Lattitude": -37.718,
    "Longtitude": 144.9174,
    "Postcode": 3046,
    "Regionname": "Northern Metropolitan",
    "Suburb": "Oak Park",
    "Suburb_Cap": "OAK PARK"
  },
  {
    "Lattitude": -37.9122,
    "Longtitude": 145.0853,
    "Postcode": 3167,
    "Regionname": "South-Eastern Metropolitan",
    "Suburb": "Oakleigh South",
    "Suburb_Cap": "OAKLEIGH SOUTH"
  },
  {
    "Lattitude": -37.7767,
    "Longtitude": 144.9403,
    "Postcode": 3052,
    "Regionname": "Northern Metropolitan",
    "Suburb": "Parkville",
    "Suburb_Cap": "PARKVILLE"
  },
  {
    "Lattitude": -37.734,
    "Longtitude": 144.9416,
    "Postcode": 3044,
    "Regionname": "Northern Metropolitan",
    "Suburb": "Pascoe Vale",
    "Suburb_Cap": "PASCOE VALE"
  },
  {
    "Lattitude": -37.8405,
    "Longtitude": 144.9319,
    "Postcode": 3207,
    "Regionname": "Southern Metropolitan",
    "Suburb": "Port Melbourne",
    "Suburb_Cap": "PORT MELBOURNE"
  },
  {
    "Lattitude": -37.85,
    "Longtitude": 145.0085,
    "Postcode": 3181,
    "Regionname": "Southern Metropolitan",
    "Suburb": "Prahran",
    "Suburb_Cap": "PRAHRAN"
  },
  {
    "Lattitude": -37.7419,
    "Longtitude": 145.0049,
    "Postcode": 3072,
    "Regionname": "Northern Metropolitan",
    "Suburb": "Preston",
    "Suburb_Cap": "PRESTON"
  },
  {
    "Lattitude": -37.7019,
    "Longtitude": 145.0256,
    "Postcode": 3073,
    "Regionname": "Northern Metropolitan",
    "Suburb": "Reservoir",
    "Suburb_Cap": "RESERVOIR"
  },
  {
    "Lattitude": -37.8106,
    "Longtitude": 144.994,
    "Postcode": 3121,
    "Regionname": "Northern Metropolitan",
    "Suburb": "Richmond",
    "Suburb_Cap": "RICHMOND"
  },
  {
    "Lattitude": -37.7395,
    "Longtitude": 145.0773,
    "Postcode": 3084,
    "Regionname": "Eastern Metropolitan",
    "Suburb": "Rosanna",
    "Suburb_Cap": "ROSANNA"
  },
  {
    "Lattitude": -37.8094,
    "Longtitude": 144.8869,
    "Postcode": 3011,
    "Regionname": "Western Metropolitan",
    "Suburb": "Seddon",
    "Suburb_Cap": "SEDDON"
  },
  {
    "Lattitude": -37.8341,
    "Longtitude": 144.9713,
    "Postcode": 3205,
    "Regionname": "Southern Metropolitan",
    "Suburb": "South Melbourne",
    "Suburb_Cap": "SOUTH MELBOURNE"
  },
  {
    "Lattitude": -37.8351,
    "Longtitude": 144.9909,
    "Postcode": 3141,
    "Regionname": "Southern Metropolitan",
    "Suburb": "South Yarra",
    "Suburb_Cap": "SOUTH YARRA"
  },
  {
    "Lattitude": -37.8235,
    "Longtitude": 144.9655,
    "Postcode": 3006,
    "Regionname": "Southern Metropolitan",
    "Suburb": "Southbank",
    "Suburb_Cap": "SOUTHBANK"
  },
  {
    "Lattitude": -37.8272,
    "Longtitude": 144.8789,
    "Postcode": 3015,
    "Regionname": "Western Metropolitan",
    "Suburb": "Spotswood",
    "Suburb_Cap": "SPOTSWOOD"
  },
  {
    "Lattitude": -37.8679,
    "Longtitude": 144.9813,
    "Postcode": 3182,
    "Regionname": "Southern Metropolitan",
    "Suburb": "St Kilda",
    "Suburb_Cap": "ST KILDA"
  },
  {
    "Lattitude": -37.7356,
    "Longtitude": 144.9242,
    "Postcode": 3041,
    "Regionname": "Western Metropolitan",
    "Suburb": "Strathmore",
    "Suburb_Cap": "STRATHMORE"
  },
  {
    "Lattitude": -37.7952,
    "Longtitude": 144.8262,
    "Postcode": 3020,
    "Regionname": "Western Metropolitan",
    "Suburb": "Sunshine",
    "Suburb_Cap": "SUNSHINE"
  },
  {
    "Lattitude": -37.7694,
    "Longtitude": 144.8321,
    "Postcode": 3020,
    "Regionname": "Western Metropolitan",
    "Suburb": "Sunshine North",
    "Suburb_Cap": "SUNSHINE NORTH"
  },
  {
    "Lattitude": -37.8004,
    "Longtitude": 144.8105,
    "Postcode": 3020,
    "Regionname": "Western Metropolitan",
    "Suburb": "Sunshine West",
    "Suburb_Cap": "SUNSHINE WEST"
  },
  {
    "Lattitude": -37.8154,
    "Longtitude": 145.0927,
    "Postcode": 3127,
    "Regionname": "Southern Metropolitan",
    "Suburb": "Surrey Hills",
    "Suburb_Cap": "SURREY HILLS"
  },
  {
    "Lattitude": -37.7642,
    "Longtitude": 145.1157,
    "Postcode": 3107,
    "Regionname": "Eastern Metropolitan",
    "Suburb": "Templestowe Lower",
    "Suburb_Cap": "TEMPLESTOWE LOWER"
  },
  {
    "Lattitude": -37.7591,
    "Longtitude": 145.0211,
    "Postcode": 3071,
    "Regionname": "Northern Metropolitan",
    "Suburb": "Thornbury",
    "Suburb_Cap": "THORNBURY"
  },
  {
    "Lattitude": -37.8328,
    "Longtitude": 145.0065,
    "Postcode": 3142,
    "Regionname": "Southern Metropolitan",
    "Suburb": "Toorak",
    "Suburb_Cap": "TOORAK"
  },
  {
    "Lattitude": -37.735,
    "Longtitude": 145.0921,
    "Postcode": 3084,
    "Regionname": "Eastern Metropolitan",
    "Suburb": "Viewbank",
    "Suburb_Cap": "VIEWBANK"
  },
  {
    "Lattitude": -37.7137,
    "Longtitude": 145.0778,
    "Postcode": 3087,
    "Regionname": "Northern Metropolitan",
    "Suburb": "Watsonia",
    "Suburb_Cap": "WATSONIA"
  },
  {
    "Lattitude": -37.8048,
    "Longtitude": 144.9424,
    "Postcode": 3003,
    "Regionname": "Northern Metropolitan",
    "Suburb": "West Melbourne",
    "Suburb_Cap": "WEST MELBOURNE"
  },
  {
    "Lattitude": -37.855,
    "Longtitude": 144.8905,
    "Postcode": 3016,
    "Regionname": "Western Metropolitan",
    "Suburb": "Williamstown",
    "Suburb_Cap": "WILLIAMSTOWN"
  },
  {
    "Lattitude": -37.8563,
    "Longtitude": 144.8782,
    "Postcode": 3016,
    "Regionname": "Western Metropolitan",
    "Suburb": "Williamstown North",
    "Suburb_Cap": "WILLIAMSTOWN NORTH"
  },
  {
    "Lattitude": -37.8558,
    "Longtitude": 144.9903,
    "Postcode": 3181,
    "Regionname": "Southern Metropolitan",
    "Suburb": "Windsor",
    "Suburb_Cap": "WINDSOR"
  },
  {
    "Lattitude": -37.7251,
    "Longtitude": 145.1053,
    "Postcode": 3085,
    "Regionname": "Northern Metropolitan",
    "Suburb": "Yallambie",
    "Suburb_Cap": "YALLAMBIE"
  },
  {
    "Lattitude": -37.8228,
    "Longtitude": 144.8799,
    "Postcode": 3013,
    "Regionname": "Western Metropolitan",
    "Suburb": "Yarraville",
    "Suburb_Cap": "YARRAVILLE"
  },
  {
    "Lattitude": -37.7561,
    "Longtitude": 144.9028,
    "Postcode": 3040,
    "Regionname": "Western Metropolitan",
    "Suburb": "Aberfeldie",
    "Suburb_Cap": "ABERFELDIE"
  },
  {
    "Lattitude": -37.752,
    "Longtitude": 145.0367,
    "Postcode": 3081,
    "Regionname": "Eastern Metropolitan",
    "Suburb": "Bellfield",
    "Suburb_Cap": "BELLFIELD"
  },
  {
    "Lattitude": -37.7638,
    "Longtitude": 144.9804,
    "Postcode": 3057,
    "Regionname": "Northern Metropolitan",
    "Suburb": "Brunswick East",
    "Suburb_Cap": "BRUNSWICK EAST"
  },
  {
    "Lattitude": -37.8301,
    "Longtitude": 145.0103,
    "Postcode": 3121,
    "Regionname": "Northern Metropolitan",
    "Suburb": "Burnley",
    "Suburb_Cap": "BURNLEY"
  },
  {
    "Lattitude": -37.6783,
    "Longtitude": 144.9672,
    "Postcode": 3061,
    "Regionname": "Northern Metropolitan",
    "Suburb": "Campbellfield",
    "Suburb_Cap": "CAMPBELLFIELD"
  },
  {
    "Lattitude": -37.8042,
    "Longtitude": 144.9691,
    "Postcode": 3053,
    "Regionname": "Northern Metropolitan",
    "Suburb": "Carlton",
    "Suburb_Cap": "CARLTON"
  },
  {
    "Lattitude": -37.8181,
    "Longtitude": 144.9879,
    "Postcode": 3002,
    "Regionname": "Northern Metropolitan",
    "Suburb": "East Melbourne",
    "Suburb_Cap": "EAST MELBOURNE"
  },
  {
    "Lattitude": -37.7552,
    "Longtitude": 144.8882,
    "Postcode": 3040,
    "Regionname": "Western Metropolitan",
    "Suburb": "Essendon West",
    "Suburb_Cap": "ESSENDON WEST"
  },
  {
    "Lattitude": -37.7007,
    "Longtitude": 144.9632,
    "Postcode": 3060,
    "Regionname": "Northern Metropolitan",
    "Suburb": "Fawkner",
    "Suburb_Cap": "FAWKNER"
  },
  {
    "Lattitude": -37.8249,
    "Longtitude": 145.0532,
    "Postcode": 3123,
    "Regionname": "Southern Metropolitan",
    "Suburb": "Hawthorn East",
    "Suburb_Cap": "HAWTHORN EAST"
  },
  {
    "Lattitude": -37.7519,
    "Longtitude": 145.0687,
    "Postcode": 3084,
    "Regionname": "Eastern Metropolitan",
    "Suburb": "Heidelberg",
    "Suburb_Cap": "HEIDELBERG"
  },
  {
    "Lattitude": -37.7769,
    "Longtitude": 145.0605,
    "Postcode": 3079,
    "Regionname": "Eastern Metropolitan",
    "Suburb": "Ivanhoe East",
    "Suburb_Cap": "IVANHOE EAST"
  },
  {
    "Lattitude": -37.6885,
    "Longtitude": 144.9092,
    "Postcode": 3047,
    "Regionname": "Northern Metropolitan",
    "Suburb": "Jacana",
    "Suburb_Cap": "JACANA"
  },
  {
    "Lattitude": -37.7133,
    "Longtitude": 145.0374,
    "Postcode": 3083,
    "Regionname": "Northern Metropolitan",
    "Suburb": "Kingsbury",
    "Suburb_Cap": "KINGSBURY"
  },
  {
    "Lattitude": -37.8115,
    "Longtitude": 144.8763,
    "Postcode": 3012,
    "Regionname": "Western Metropolitan",
    "Suburb": "Kingsville",
    "Suburb_Cap": "KINGSVILLE"
  },
  {
    "Lattitude": -37.8958,
    "Longtitude": 145.0696,
    "Postcode": 3163,
    "Regionname": "Southern Metropolitan",
    "Suburb": "Murrumbeena",
    "Suburb_Cap": "MURRUMBEENA"
  },
  {
    "Lattitude": -37.8986,
    "Longtitude": 145.0359,
    "Postcode": 3204,
    "Regionname": "Southern Metropolitan",
    "Suburb": "Ormond",
    "Suburb_Cap": "ORMOND"
  },
  {
    "Lattitude": -37.7955,
    "Longtitude": 144.8784,
    "Postcode": 3012,
    "Regionname": "Western Metropolitan",
    "Suburb": "West Footscray",
    "Suburb_Cap": "WEST FOOTSCRAY"
  },
  {
    "Lattitude": -37.7812,
    "Longtitude": 144.8121,
    "Postcode": 3020,
    "Regionname": "Western Metropolitan",
    "Suburb": "Albion",
    "Suburb_Cap": "ALBION"
  },
  {
    "Lattitude": -37.8203,
    "Longtitude": 144.8386,
    "Postcode": 3012,
    "Regionname": "Western Metropolitan",
    "Suburb": "Brooklyn",
    "Suburb_Cap": "BROOKLYN"
  },
  {
    "Lattitude": -37.8878,
    "Longtitude": 145.0407,
    "Postcode": 3163,
    "Regionname": "Southern Metropolitan",
    "Suburb": "Glen Huntly",
    "Suburb_Cap": "GLEN HUNTLY"
  },
  {
    "Lattitude": -37.9001,
    "Longtitude": 145.0981,
    "Postcode": 3166,
    "Regionname": "Southern Metropolitan",
    "Suburb": "Oakleigh",
    "Suburb_Cap": "OAKLEIGH"
  },
  {
    "Lattitude": -37.8794,
    "Longtitude": 144.9947,
    "Postcode": 3185,
    "Regionname": "Southern Metropolitan",
    "Suburb": "Ripponlea",
    "Suburb_Cap": "RIPPONLEA"
  },
  {
    "Lattitude": -37.8281,
    "Longtitude": 144.9923,
    "Postcode": 3121,
    "Regionname": "Northern Metropolitan",
    "Suburb": "Cremorne",
    "Suburb_Cap": "CREMORNE"
  },
  {
    "Lattitude": -37.8133,
    "Longtitude": 144.9433,
    "Postcode": 3008,
    "Regionname": "Southern Metropolitan",
    "Suburb": "Docklands",
    "Suburb_Cap": "DOCKLANDS"
  },
  {
    "Lattitude": -37.8305,
    "Longtitude": 144.8736,
    "Postcode": 3015,
    "Regionname": "Western Metropolitan",
    "Suburb": "South Kingsville",
    "Suburb_Cap": "SOUTH KINGSVILLE"
  },
  {
    "Lattitude": -37.7141,
    "Longtitude": 144.8995,
    "Postcode": 3041,
    "Regionname": "Western Metropolitan",
    "Suburb": "Strathmore Heights",
    "Suburb_Cap": "STRATHMORE HEIGHTS"
  },
  {
    "Lattitude": -37.7822,
    "Longtitude": 144.9342,
    "Postcode": 3032,
    "Regionname": "Western Metropolitan",
    "Suburb": "Travancore",
    "Suburb_Cap": "TRAVANCORE"
  },
  {
    "Lattitude": -37.8815,
    "Longtitude": 145.0491,
    "Postcode": 3145,
    "Regionname": "Southern Metropolitan",
    "Suburb": "Caulfield East",
    "Suburb_Cap": "CAULFIELD EAST"
  },
  {
    "Lattitude": -37.8628,
    "Longtitude": 144.8468,
    "Postcode": 3018,
    "Regionname": "Western Metropolitan",
    "Suburb": "Seaholme",
    "Suburb_Cap": "SEAHOLME"
  },
  {
    "Lattitude": -37.725,
    "Longtitude": 144.8586,
    "Postcode": 3042,
    "Regionname": "Western Metropolitan",
    "Suburb": "Keilor Park",
    "Suburb_Cap": "KEILOR PARK"
  },
  {
    "Lattitude": -37.8982,
    "Longtitude": 145.0121,
    "Postcode": 3185,
    "Regionname": "Southern Metropolitan",
    "Suburb": "Gardenvale",
    "Suburb_Cap": "GARDENVALE"
  },
  {
    "Lattitude": -37.7832,
    "Longtitude": 144.9655,
    "Postcode": 3054,
    "Regionname": "Northern Metropolitan",
    "Suburb": "Princes Hill",
    "Suburb_Cap": "PRINCES HILL"
  },
  {
    "Lattitude": -37.83909,
    "Longtitude": 145.26075,
    "Postcode": 3153,
    "Regionname": "Eastern Metropolitan",
    "Suburb": "Bayswater",
    "Suburb_Cap": "BAYSWATER"
  },
  {
    "Lattitude": -37.83303,
    "Longtitude": 145.27488,
    "Postcode": 3153,
    "Regionname": "Eastern Metropolitan",
    "Suburb": "Bayswater North",
    "Suburb_Cap": "BAYSWATER NORTH"
  },
  {
    "Lattitude": -37.98139,
    "Longtitude": 145.05251,
    "Postcode": 3193,
    "Regionname": "Southern Metropolitan",
    "Suburb": "Beaumaris",
    "Suburb_Cap": "BEAUMARIS"
  },
  {
    "Lattitude": -38.02434,
    "Longtitude": 145.33117,
    "Postcode": 3806,
    "Regionname": "Eastern Victoria",
    "Suburb": "Berwick",
    "Suburb_Cap": "BERWICK"
  },
  {
    "Lattitude": -37.84674,
    "Longtitude": 145.29351,
    "Postcode": 3155,
    "Regionname": "Eastern Metropolitan",
    "Suburb": "Boronia",
    "Suburb_Cap": "BORONIA"
  },
  {
    "Lattitude": -37.70822,
    "Longtitude": 145.11495,
    "Postcode": 3088,
    "Regionname": "Eastern Metropolitan",
    "Suburb": "Briar Hill",
    "Suburb_Cap": "BRIAR HILL"
  },
  {
    "Lattitude": -37.68358,
    "Longtitude": 144.92387,
    "Postcode": 3047,
    "Regionname": "Northern Metropolitan",
    "Suburb": "Broadmeadows",
    "Suburb_Cap": "BROADMEADOWS"
  },
  {
    "Lattitude": -37.70834,
    "Longtitude": 145.05424,
    "Postcode": 3083,
    "Regionname": "Northern Metropolitan",
    "Suburb": "Bundoora",
    "Suburb_Cap": "BUNDOORA"
  },
  {
    "Lattitude": -37.7331,
    "Longtitude": 144.76282,
    "Postcode": 3023,
    "Regionname": "Western Metropolitan",
    "Suburb": "Burnside Heights",
    "Suburb_Cap": "BURNSIDE HEIGHTS"
  },
  {
    "Lattitude": -37.8534,
    "Longtitude": 145.14218,
    "Postcode": 3151,
    "Regionname": "Eastern Metropolitan",
    "Suburb": "Burwood East",
    "Suburb_Cap": "BURWOOD EAST"
  },
  {
    "Lattitude": -37.75107,
    "Longtitude": 144.78415,
    "Postcode": 3023,
    "Regionname": "Western Metropolitan",
    "Suburb": "Cairnlea",
    "Suburb_Cap": "CAIRNLEA"
  },
  {
    "Lattitude": -37.74397,
    "Longtitude": 144.73472,
    "Postcode": 3023,
    "Regionname": "Western Metropolitan",
    "Suburb": "Caroline Springs",
    "Suburb_Cap": "CAROLINE SPRINGS"
  },
  {
    "Lattitude": -37.96763,
    "Longtitude": 145.07898,
    "Postcode": 3192,
    "Regionname": "Southern Metropolitan",
    "Suburb": "Cheltenham",
    "Suburb_Cap": "CHELTENHAM"
  },
  {
    "Lattitude": -37.58885,
    "Longtitude": 144.90135,
    "Postcode": 3064,
    "Regionname": "Northern Metropolitan",
    "Suburb": "Craigieburn",
    "Suburb_Cap": "CRAIGIEBURN"
  },
  {
    "Lattitude": -38.10687,
    "Longtitude": 145.2811,
    "Postcode": 3977,
    "Regionname": "South-Eastern Metropolitan",
    "Suburb": "Cranbourne",
    "Suburb_Cap": "CRANBOURNE"
  },
  {
    "Lattitude": -37.79587,
    "Longtitude": 145.2683,
    "Postcode": 3136,
    "Regionname": "Eastern Metropolitan",
    "Suburb": "Croydon",
    "Suburb_Cap": "CROYDON"
  },
  {
    "Lattitude": -37.98712,
    "Longtitude": 145.22262,
    "Postcode": 3175,
    "Regionname": "South-Eastern Metropolitan",
    "Suburb": "Dandenong",
    "Suburb_Cap": "DANDENONG"
  },
  {
    "Lattitude": -37.96322,
    "Longtitude": 145.20586,
    "Postcode": 3175,
    "Regionname": "South-Eastern Metropolitan",
    "Suburb": "Dandenong North",
    "Suburb_Cap": "DANDENONG NORTH"
  },
  {
    "Lattitude": -37.67629,
    "Longtitude": 145.15589,
    "Postcode": 3089,
    "Regionname": "Northern Victoria",
    "Suburb": "Diamond Creek",
    "Suburb_Cap": "DIAMOND CREEK"
  },
  {
    "Lattitude": -37.98412,
    "Longtitude": 145.13433,
    "Postcode": 3172,
    "Regionname": "South-Eastern Metropolitan",
    "Suburb": "Dingley Village",
    "Suburb_Cap": "DINGLEY VILLAGE"
  },
  {
    "Lattitude": -37.78053,
    "Longtitude": 145.15567,
    "Postcode": 3109,
    "Regionname": "Eastern Metropolitan",
    "Suburb": "Doncaster East",
    "Suburb_Cap": "DONCASTER EAST"
  },
  {
    "Lattitude": -37.76598,
    "Longtitude": 145.19329,
    "Postcode": 3111,
    "Regionname": "Eastern Metropolitan",
    "Suburb": "Donvale",
    "Suburb_Cap": "DONVALE"
  },
  {
    "Lattitude": -37.61042,
    "Longtitude": 145.11932,
    "Postcode": 3754,
    "Regionname": "Northern Victoria",
    "Suburb": "Doreen",
    "Suburb_Cap": "DOREEN"
  },
  {
    "Lattitude": -37.71926,
    "Longtitude": 145.15082,
    "Postcode": 3095,
    "Regionname": "Eastern Metropolitan",
    "Suburb": "Eltham",
    "Suburb_Cap": "ELTHAM"
  },
  {
    "Lattitude": -37.62693,
    "Longtitude": 145.01563,
    "Postcode": 3076,
    "Regionname": "Northern Metropolitan",
    "Suburb": "Epping",
    "Suburb_Cap": "EPPING"
  },
  {
    "Lattitude": -37.83816,
    "Longtitude": 145.17783,
    "Postcode": 3131,
    "Regionname": "Eastern Metropolitan",
    "Suburb": "Forest Hill",
    "Suburb_Cap": "FOREST HILL"
  },
  {
    "Lattitude": -38.1523,
    "Longtitude": 145.11874,
    "Postcode": 3199,
    "Regionname": "South-Eastern Metropolitan",
    "Suburb": "Frankston",
    "Suburb_Cap": "FRANKSTON"
  },
  {
    "Lattitude": -38.11948,
    "Longtitude": 145.14928,
    "Postcode": 3200,
    "Regionname": "Eastern Victoria",
    "Suburb": "Frankston North",
    "Suburb_Cap": "FRANKSTON NORTH"
  },
  {
    "Lattitude": -38.16492,
    "Longtitude": 145.12656,
    "Postcode": 3199,
    "Regionname": "South-Eastern Metropolitan",
    "Suburb": "Frankston South",
    "Suburb_Cap": "FRANKSTON SOUTH"
  },
  {
    "Lattitude": -37.49642,
    "Longtitude": 144.60119,
    "Postcode": 3437,
    "Regionname": "Northern Victoria",
    "Suburb": "Gisborne",
    "Suburb_Cap": "GISBORNE"
  },
  {
    "Lattitude": -37.68541,
    "Longtitude": 144.88471,
    "Postcode": 3043,
    "Regionname": "Western Metropolitan",
    "Suburb": "Gladstone Park",
    "Suburb_Cap": "GLADSTONE PARK"
  },
  {
    "Lattitude": -37.69749,
    "Longtitude": 145.1058,
    "Postcode": 3088,
    "Regionname": "Northern Metropolitan",
    "Suburb": "Greensborough",
    "Suburb_Cap": "GREENSBOROUGH"
  },
  {
    "Lattitude": -38.00022,
    "Longtitude": 145.2709,
    "Postcode": 3803,
    "Regionname": "South-Eastern Metropolitan",
    "Suburb": "Hallam",
    "Suburb_Cap": "HALLAM"
  },
  {
    "Lattitude": -37.64685,
    "Longtitude": 145.52635,
    "Postcode": 3777,
    "Regionname": "Northern Victoria",
    "Suburb": "Healesville",
    "Suburb_Cap": "HEALESVILLE"
  },
  {
    "Lattitude": -37.94887,
    "Longtitude": 145.02647,
    "Postcode": 3190,
    "Regionname": "Southern Metropolitan",
    "Suburb": "Highett",
    "Suburb_Cap": "HIGHETT"
  },
  {
    "Lattitude": -37.68455,
    "Longtitude": 144.73272,
    "Postcode": 3037,
    "Regionname": "Western Metropolitan",
    "Suburb": "Hillside",
    "Suburb_Cap": "HILLSIDE"
  },
  {
    "Lattitude": -37.90415,
    "Longtitude": 145.10504,
    "Postcode": 3166,
    "Regionname": "Southern Metropolitan",
    "Suburb": "Huntingdale",
    "Suburb_Cap": "HUNTINGDALE"
  },
  {
    "Lattitude": -37.71424,
    "Longtitude": 144.7958,
    "Postcode": 3038,
    "Regionname": "Western Metropolitan",
    "Suburb": "Keilor Downs",
    "Suburb_Cap": "KEILOR DOWNS"
  },
  {
    "Lattitude": -37.70115,
    "Longtitude": 144.80144,
    "Postcode": 3038,
    "Regionname": "Western Metropolitan",
    "Suburb": "Keilor Lodge",
    "Suburb_Cap": "KEILOR LODGE"
  },
  {
    "Lattitude": -38.00293,
    "Longtitude": 145.16465,
    "Postcode": 3173,
    "Regionname": "South-Eastern Metropolitan",
    "Suburb": "Keysborough",
    "Suburb_Cap": "KEYSBOROUGH"
  },
  {
    "Lattitude": -37.73341,
    "Longtitude": 144.77161,
    "Postcode": 3021,
    "Regionname": "Western Metropolitan",
    "Suburb": "Kings Park",
    "Suburb_Cap": "KINGS PARK"
  },
  {
    "Lattitude": -37.66747,
    "Longtitude": 144.98802,
    "Postcode": 3075,
    "Regionname": "Northern Metropolitan",
    "Suburb": "Lalor",
    "Suburb_Cap": "LALOR"
  },
  {
    "Lattitude": -37.72399,
    "Longtitude": 145.12069,
    "Postcode": 3093,
    "Regionname": "Eastern Metropolitan",
    "Suburb": "Lower Plenty",
    "Suburb_Cap": "LOWER PLENTY"
  },
  {
    "Lattitude": -37.69026,
    "Longtitude": 144.57866,
    "Postcode": 3337,
    "Regionname": "Western Victoria",
    "Suburb": "Melton",
    "Suburb_Cap": "MELTON"
  },
  {
    "Lattitude": -37.58676,
    "Longtitude": 145.08889,
    "Postcode": 3754,
    "Regionname": "Northern Metropolitan",
    "Suburb": "Mernda",
    "Suburb_Cap": "MERNDA"
  },
  {
    "Lattitude": -37.67231,
    "Longtitude": 145.05878,
    "Postcode": 3082,
    "Regionname": "Northern Metropolitan",
    "Suburb": "Mill Park",
    "Suburb_Cap": "MILL PARK"
  },
  {
    "Lattitude": -37.82583,
    "Longtitude": 145.20608,
    "Postcode": 3132,
    "Regionname": "Eastern Metropolitan",
    "Suburb": "Mitcham",
    "Suburb_Cap": "MITCHAM"
  },
  {
    "Lattitude": -37.72857,
    "Longtitude": 145.12728,
    "Postcode": 3094,
    "Regionname": "Eastern Metropolitan",
    "Suburb": "Montmorency",
    "Suburb_Cap": "MONTMORENCY"
  },
  {
    "Lattitude": -38.00406,
    "Longtitude": 145.09502,
    "Postcode": 3195,
    "Regionname": "South-Eastern Metropolitan",
    "Suburb": "Mordialloc",
    "Suburb_Cap": "MORDIALLOC"
  },
  {
    "Lattitude": -37.87389,
    "Longtitude": 145.12783,
    "Postcode": 3149,
    "Regionname": "Eastern Metropolitan",
    "Suburb": "Mount Waverley",
    "Suburb_Cap": "MOUNT WAVERLEY"
  },
  {
    "Lattitude": -38.03147,
    "Longtitude": 145.31126,
    "Postcode": 3805,
    "Regionname": "South-Eastern Metropolitan",
    "Suburb": "Narre Warren",
    "Suburb_Cap": "NARRE WARREN"
  },
  {
    "Lattitude": -37.80827,
    "Longtitude": 145.18099,
    "Postcode": 3131,
    "Regionname": "Eastern Metropolitan",
    "Suburb": "Nunawading",
    "Suburb_Cap": "NUNAWADING"
  },
  {
    "Lattitude": -37.90119,
    "Longtitude": 145.1068,
    "Postcode": 3166,
    "Regionname": "Southern Metropolitan",
    "Suburb": "Oakleigh East",
    "Suburb_Cap": "OAKLEIGH EAST"
  },
  {
    "Lattitude": -37.99464,
    "Longtitude": 145.08099,
    "Postcode": 3195,
    "Regionname": "South-Eastern Metropolitan",
    "Suburb": "Parkdale",
    "Suburb_Cap": "PARKDALE"
  },
  {
    "Lattitude": -37.89467,
    "Longtitude": 144.72018,
    "Postcode": 3030,
    "Regionname": "Western Metropolitan",
    "Suburb": "Point Cook",
    "Suburb_Cap": "POINT COOK"
  },
  {
    "Lattitude": -37.80526,
    "Longtitude": 145.24628,
    "Postcode": 3135,
    "Regionname": "Eastern Metropolitan",
    "Suburb": "Ringwood East",
    "Suburb_Cap": "RINGWOOD EAST"
  },
  {
    "Lattitude": -37.73289,
    "Longtitude": 144.66615,
    "Postcode": 3335,
    "Regionname": "Western Metropolitan",
    "Suburb": "Rockbank",
    "Suburb_Cap": "ROCKBANK"
  },
  {
    "Lattitude": -37.91894,
    "Longtitude": 145.24305,
    "Postcode": 3178,
    "Regionname": "South-Eastern Metropolitan",
    "Suburb": "Rowville",
    "Suburb_Cap": "ROWVILLE"
  },
  {
    "Lattitude": -37.95236,
    "Longtitude": 145.00737,
    "Postcode": 3191,
    "Regionname": "Southern Metropolitan",
    "Suburb": "Sandringham",
    "Suburb_Cap": "SANDRINGHAM"
  },
  {
    "Lattitude": -38.10422,
    "Longtitude": 145.14159,
    "Postcode": 3198,
    "Regionname": "South-Eastern Metropolitan",
    "Suburb": "Seaford",
    "Suburb_Cap": "SEAFORD"
  },
  {
    "Lattitude": -38.10542,
    "Longtitude": 145.19951,
    "Postcode": 3977,
    "Regionname": "South-Eastern Metropolitan",
    "Suburb": "Skye",
    "Suburb_Cap": "SKYE"
  },
  {
    "Lattitude": -37.61957,
    "Longtitude": 145.0948,
    "Postcode": 3752,
    "Regionname": "Northern Metropolitan",
    "Suburb": "South Morang",
    "Suburb_Cap": "SOUTH MORANG"
  },
  {
    "Lattitude": -37.94106,
    "Longtitude": 145.16193,
    "Postcode": 3171,
    "Regionname": "South-Eastern Metropolitan",
    "Suburb": "Springvale",
    "Suburb_Cap": "SPRINGVALE"
  },
  {
    "Lattitude": -37.73074,
    "Longtitude": 144.78925,
    "Postcode": 3021,
    "Regionname": "Western Metropolitan",
    "Suburb": "St Albans",
    "Suburb_Cap": "ST ALBANS"
  },
  {
    "Lattitude": -37.59501,
    "Longtitude": 144.70069,
    "Postcode": 3429,
    "Regionname": "Western Metropolitan",
    "Suburb": "Sunbury",
    "Suburb_Cap": "SUNBURY"
  },
  {
    "Lattitude": -37.84123,
    "Longtitude": 144.69649,
    "Postcode": 3029,
    "Regionname": "Western Metropolitan",
    "Suburb": "Tarneit",
    "Suburb_Cap": "TARNEIT"
  },
  {
    "Lattitude": -37.71071,
    "Longtitude": 144.74962,
    "Postcode": 3037,
    "Regionname": "Western Metropolitan",
    "Suburb": "Taylors Hill",
    "Suburb_Cap": "TAYLORS HILL"
  },
  {
    "Lattitude": -37.70308,
    "Longtitude": 144.79954,
    "Postcode": 3038,
    "Regionname": "Western Metropolitan",
    "Suburb": "Taylors Lakes",
    "Suburb_Cap": "TAYLORS LAKES"
  },
  {
    "Lattitude": -37.86387,
    "Longtitude": 145.31762,
    "Postcode": 3154,
    "Regionname": "Eastern Metropolitan",
    "Suburb": "The Basin",
    "Suburb_Cap": "THE BASIN"
  },
  {
    "Lattitude": -37.67748,
    "Longtitude": 145.01791,
    "Postcode": 3074,
    "Regionname": "Northern Metropolitan",
    "Suburb": "Thomastown",
    "Suburb_Cap": "THOMASTOWN"
  },
  {
    "Lattitude": -37.84219,
    "Longtitude": 144.71155,
    "Postcode": 3029,
    "Regionname": "Western Metropolitan",
    "Suburb": "Truganina",
    "Suburb_Cap": "TRUGANINA"
  },
  {
    "Lattitude": -37.70367,
    "Longtitude": 144.88081,
    "Postcode": 3043,
    "Regionname": "Western Metropolitan",
    "Suburb": "Tullamarine",
    "Suburb_Cap": "TULLAMARINE"
  },
  {
    "Lattitude": -37.831,
    "Longtitude": 145.19844,
    "Postcode": 3133,
    "Regionname": "Eastern Metropolitan",
    "Suburb": "Vermont",
    "Suburb_Cap": "VERMONT"
  },
  {
    "Lattitude": -37.84646,
    "Longtitude": 145.22591,
    "Postcode": 3152,
    "Regionname": "Eastern Metropolitan",
    "Suburb": "Wantirna",
    "Suburb_Cap": "WANTIRNA"
  },
  {
    "Lattitude": -37.88695,
    "Longtitude": 145.21891,
    "Postcode": 3152,
    "Regionname": "Eastern Metropolitan",
    "Suburb": "Wantirna South",
    "Suburb_Cap": "WANTIRNA SOUTH"
  },
  {
    "Lattitude": -37.88688,
    "Longtitude": 144.67244,
    "Postcode": 3030,
    "Regionname": "Western Metropolitan",
    "Suburb": "Werribee",
    "Suburb_Cap": "WERRIBEE"
  },
  {
    "Lattitude": -37.67485,
    "Longtitude": 144.88995,
    "Postcode": 3049,
    "Regionname": "Northern Metropolitan",
    "Suburb": "Westmeadows",
    "Suburb_Cap": "WESTMEADOWS"
  },
  {
    "Lattitude": -37.8543,
    "Longtitude": 144.74437,
    "Postcode": 3027,
    "Regionname": "Western Metropolitan",
    "Suburb": "Williams Landing",
    "Suburb_Cap": "WILLIAMS LANDING"
  },
  {
    "Lattitude": -37.61401,
    "Longtitude": 145.03301,
    "Postcode": 3750,
    "Regionname": "Northern Metropolitan",
    "Suburb": "Wollert",
    "Suburb_Cap": "WOLLERT"
  },
  {
    "Lattitude": -37.89757,
    "Longtitude": 144.63041,
    "Postcode": 3024,
    "Regionname": "Western Metropolitan",
    "Suburb": "Wyndham Vale",
    "Suburb_Cap": "WYNDHAM VALE"
  },
  {
    "Lattitude": -37.97614,
    "Longtitude": 145.02014,
    "Postcode": 3193,
    "Regionname": "Southern Metropolitan",
    "Suburb": "Black Rock",
    "Suburb_Cap": "BLACK ROCK"
  },
  {
    "Lattitude": -37.81726,
    "Longtitude": 145.16061,
    "Postcode": 3130,
    "Regionname": "Eastern Metropolitan",
    "Suburb": "Blackburn",
    "Suburb_Cap": "BLACKBURN"
  },
  {
    "Lattitude": -37.8054,
    "Longtitude": 145.15701,
    "Postcode": 3130,
    "Regionname": "Eastern Metropolitan",
    "Suburb": "Blackburn North",
    "Suburb_Cap": "BLACKBURN NORTH"
  },
  {
    "Lattitude": -38.06257,
    "Longtitude": 145.1226,
    "Postcode": 3196,
    "Regionname": "South-Eastern Metropolitan",
    "Suburb": "Bonbeach",
    "Suburb_Cap": "BONBEACH"
  },
  {
    "Lattitude": -38.07921,
    "Longtitude": 145.12761,
    "Postcode": 3197,
    "Regionname": "South-Eastern Metropolitan",
    "Suburb": "Carrum",
    "Suburb_Cap": "CARRUM"
  },
  {
    "Lattitude": -38.05304,
    "Longtitude": 145.1151,
    "Postcode": 3196,
    "Regionname": "South-Eastern Metropolitan",
    "Suburb": "Chelsea",
    "Suburb_Cap": "CHELSEA"
  },
  {
    "Lattitude": -37.91865,
    "Longtitude": 145.14341,
    "Postcode": 3168,
    "Regionname": "South-Eastern Metropolitan",
    "Suburb": "Clayton",
    "Suburb_Cap": "CLAYTON"
  },
  {
    "Lattitude": -37.99095,
    "Longtitude": 145.2316,
    "Postcode": 3177,
    "Regionname": "South-Eastern Metropolitan",
    "Suburb": "Doveton",
    "Suburb_Cap": "DOVETON"
  },
  {
    "Lattitude": -37.88909,
    "Longtitude": 145.26935,
    "Postcode": 3156,
    "Regionname": "Eastern Metropolitan",
    "Suburb": "Ferntree Gully",
    "Suburb_Cap": "FERNTREE GULLY"
  },
  {
    "Lattitude": -37.87173,
    "Longtitude": 145.15267,
    "Postcode": 3150,
    "Regionname": "Eastern Metropolitan",
    "Suburb": "Glen Waverley",
    "Suburb_Cap": "GLEN WAVERLEY"
  },
  {
    "Lattitude": -37.64049,
    "Longtitude": 144.8846,
    "Postcode": 3059,
    "Regionname": "Northern Metropolitan",
    "Suburb": "Greenvale",
    "Suburb_Cap": "GREENVALE"
  },
  {
    "Lattitude": -37.8327,
    "Longtitude": 145.2348,
    "Postcode": 3135,
    "Regionname": "Eastern Metropolitan",
    "Suburb": "Heathmont",
    "Suburb_Cap": "HEATHMONT"
  },
  {
    "Lattitude": -37.86515,
    "Longtitude": 144.66671,
    "Postcode": 3029,
    "Regionname": "Western Metropolitan",
    "Suburb": "Hoppers Crossing",
    "Suburb_Cap": "HOPPERS CROSSING"
  },
  {
    "Lattitude": -37.90688,
    "Longtitude": 145.02827,
    "Postcode": 3204,
    "Regionname": "Southern Metropolitan",
    "Suburb": "McKinnon",
    "Suburb_Cap": "MCKINNON"
  },
  {
    "Lattitude": -37.69791,
    "Longtitude": 144.5807,
    "Postcode": 3338,
    "Regionname": "Western Victoria",
    "Suburb": "Melton South",
    "Suburb_Cap": "MELTON SOUTH"
  },
  {
    "Lattitude": -37.67523,
    "Longtitude": 144.55833,
    "Postcode": 3337,
    "Regionname": "Northern Victoria",
    "Suburb": "Melton West",
    "Suburb_Cap": "MELTON WEST"
  },
  {
    "Lattitude": -37.97917,
    "Longtitude": 145.07573,
    "Postcode": 3194,
    "Regionname": "South-Eastern Metropolitan",
    "Suburb": "Mentone",
    "Suburb_Cap": "MENTONE"
  },
  {
    "Lattitude": -37.79026,
    "Longtitude": 145.33738,
    "Postcode": 3138,
    "Regionname": "Eastern Victoria",
    "Suburb": "Mooroolbark",
    "Suburb_Cap": "MOOROOLBARK"
  },
  {
    "Lattitude": -37.92266,
    "Longtitude": 145.16733,
    "Postcode": 3170,
    "Regionname": "South-Eastern Metropolitan",
    "Suburb": "Mulgrave",
    "Suburb_Cap": "MULGRAVE"
  },
  {
    "Lattitude": -37.80905,
    "Longtitude": 145.23534,
    "Postcode": 3134,
    "Regionname": "Eastern Metropolitan",
    "Suburb": "Ringwood",
    "Suburb_Cap": "RINGWOOD"
  },
  {
    "Lattitude": -37.63382,
    "Longtitude": 144.92774,
    "Postcode": 3064,
    "Regionname": "Northern Metropolitan",
    "Suburb": "Roxburgh Park",
    "Suburb_Cap": "ROXBURGH PARK"
  },
  {
    "Lattitude": -37.87793,
    "Longtitude": 144.75626,
    "Postcode": 3028,
    "Regionname": "Western Metropolitan",
    "Suburb": "Seabrook",
    "Suburb_Cap": "SEABROOK"
  },
  {
    "Lattitude": -37.75289,
    "Longtitude": 145.12826,
    "Postcode": 3106,
    "Regionname": "Eastern Metropolitan",
    "Suburb": "Templestowe",
    "Suburb_Cap": "TEMPLESTOWE"
  },
  {
    "Lattitude": -37.85732,
    "Longtitude": 145.19195,
    "Postcode": 3133,
    "Regionname": "Eastern Metropolitan",
    "Suburb": "Vermont South",
    "Suburb_Cap": "VERMONT SOUTH"
  },
  {
    "Lattitude": -37.74135,
    "Longtitude": 145.22405,
    "Postcode": 3113,
    "Regionname": "Eastern Metropolitan",
    "Suburb": "Warrandyte",
    "Suburb_Cap": "WARRANDYTE"
  },
  {
    "Lattitude": -37.7004,
    "Longtitude": 145.09033,
    "Postcode": 3087,
    "Regionname": "Northern Metropolitan",
    "Suburb": "Watsonia North",
    "Suburb_Cap": "WATSONIA NORTH"
  },
  {
    "Lattitude": -37.92024,
    "Longtitude": 145.18049,
    "Postcode": 3150,
    "Regionname": "South-Eastern Metropolitan",
    "Suburb": "Wheelers Hill",
    "Suburb_Cap": "WHEELERS HILL"
  },
  {
    "Lattitude": -37.88893,
    "Longtitude": 144.7866,
    "Postcode": 3028,
    "Regionname": "Western Metropolitan",
    "Suburb": "Altona Meadows",
    "Suburb_Cap": "ALTONA MEADOWS"
  },
  {
    "Lattitude": -37.83576,
    "Longtitude": 145.13634,
    "Postcode": 3130,
    "Regionname": "Eastern Metropolitan",
    "Suburb": "Blackburn South",
    "Suburb_Cap": "BLACKBURN SOUTH"
  },
  {
    "Lattitude": -38.09111,
    "Longtitude": 145.19084,
    "Postcode": 3201,
    "Regionname": "South-Eastern Metropolitan",
    "Suburb": "Carrum Downs",
    "Suburb_Cap": "CARRUM DOWNS"
  },
  {
    "Lattitude": -37.93898,
    "Longtitude": 145.13648,
    "Postcode": 3169,
    "Regionname": "South-Eastern Metropolitan",
    "Suburb": "Clayton South",
    "Suburb_Cap": "CLAYTON SOUTH"
  },
  {
    "Lattitude": -37.76917,
    "Longtitude": 145.29265,
    "Postcode": 3136,
    "Regionname": "Eastern Metropolitan",
    "Suburb": "Croydon North",
    "Suburb_Cap": "CROYDON NORTH"
  },
  {
    "Lattitude": -38.16439,
    "Longtitude": 145.1978,
    "Postcode": 3910,
    "Regionname": "Eastern Victoria",
    "Suburb": "Langwarrin",
    "Suburb_Cap": "LANGWARRIN"
  },
  {
    "Lattitude": -37.97267,
    "Longtitude": 145.18262,
    "Postcode": 3174,
    "Regionname": "South-Eastern Metropolitan",
    "Suburb": "Noble Park",
    "Suburb_Cap": "NOBLE PARK"
  },
  {
    "Lattitude": -37.90354,
    "Longtitude": 145.14394,
    "Postcode": 3168,
    "Regionname": "Southern Metropolitan",
    "Suburb": "Notting Hill",
    "Suburb_Cap": "NOTTING HILL"
  },
  {
    "Lattitude": -37.80384,
    "Longtitude": 145.22562,
    "Postcode": 3134,
    "Regionname": "Eastern Metropolitan",
    "Suburb": "Ringwood North",
    "Suburb_Cap": "RINGWOOD NORTH"
  },
  {
    "Lattitude": -37.705,
    "Longtitude": 144.75759,
    "Postcode": 3037,
    "Regionname": "Western Metropolitan",
    "Suburb": "Sydenham",
    "Suburb_Cap": "SYDENHAM"
  },
  {
    "Lattitude": -37.7438,
    "Longtitude": 144.77059,
    "Postcode": 3021,
    "Regionname": "Western Metropolitan",
    "Suburb": "Albanvale",
    "Suburb_Cap": "ALBANVALE"
  },
  {
    "Lattitude": -38.00224,
    "Longtitude": 145.41081,
    "Postcode": 3808,
    "Regionname": "Eastern Victoria",
    "Suburb": "Beaconsfield Upper",
    "Suburb_Cap": "BEACONSFIELD UPPER"
  },
  {
    "Lattitude": -38.03526,
    "Longtitude": 145.13286,
    "Postcode": 3196,
    "Regionname": "South-Eastern Metropolitan",
    "Suburb": "Chelsea Heights",
    "Suburb_Cap": "CHELSEA HEIGHTS"
  },
  {
    "Lattitude": -37.67159,
    "Longtitude": 144.94522,
    "Postcode": 3047,
    "Regionname": "Northern Metropolitan",
    "Suburb": "Dallas",
    "Suburb_Cap": "DALLAS"
  },
  {
    "Lattitude": -37.76336,
    "Longtitude": 144.7725,
    "Postcode": 3023,
    "Regionname": "Western Metropolitan",
    "Suburb": "Deer Park",
    "Suburb_Cap": "DEER PARK"
  },
  {
    "Lattitude": -37.69031,
    "Longtitude": 145.14557,
    "Postcode": 3095,
    "Regionname": "Eastern Metropolitan",
    "Suburb": "Eltham North",
    "Suburb_Cap": "ELTHAM NORTH"
  },
  {
    "Lattitude": -37.72302,
    "Longtitude": 144.83434,
    "Postcode": 3036,
    "Regionname": "Western Metropolitan",
    "Suburb": "Keilor",
    "Suburb_Cap": "KEILOR"
  },
  {
    "Lattitude": -37.65702,
    "Longtitude": 144.92447,
    "Postcode": 3048,
    "Regionname": "Northern Metropolitan",
    "Suburb": "Meadow Heights",
    "Suburb_Cap": "MEADOW HEIGHTS"
  },
  {
    "Lattitude": -37.79977,
    "Longtitude": 145.37222,
    "Postcode": 3796,
    "Regionname": "Eastern Victoria",
    "Suburb": "Mount Evelyn",
    "Suburb_Cap": "MOUNT EVELYN"
  },
  {
    "Lattitude": -37.73371,
    "Longtitude": 145.24045,
    "Postcode": 3113,
    "Regionname": "Eastern Metropolitan",
    "Suburb": "North Warrandyte",
    "Suburb_Cap": "NORTH WARRANDYTE"
  },
  {
    "Lattitude": -38.07474,
    "Longtitude": 145.45376,
    "Postcode": 3810,
    "Regionname": "Eastern Victoria",
    "Suburb": "Pakenham",
    "Suburb_Cap": "PAKENHAM"
  },
  {
    "Lattitude": -37.45709,
    "Longtitude": 144.68999,
    "Postcode": 3431,
    "Regionname": "Northern Victoria",
    "Suburb": "Riddells Creek",
    "Suburb_Cap": "RIDDELLS CREEK"
  },
  {
    "Lattitude": -38.0817,
    "Longtitude": 145.19654,
    "Postcode": 3977,
    "Regionname": "South-Eastern Metropolitan",
    "Suburb": "Sandhurst",
    "Suburb_Cap": "SANDHURST"
  },
  {
    "Lattitude": -37.88919,
    "Longtitude": 145.21629,
    "Postcode": 3179,
    "Regionname": "Eastern Metropolitan",
    "Suburb": "Scoresby",
    "Suburb_Cap": "SCORESBY"
  },
  {
    "Lattitude": -37.83229,
    "Longtitude": 145.43003,
    "Postcode": 3795,
    "Regionname": "Eastern Victoria",
    "Suburb": "Silvan",
    "Suburb_Cap": "SILVAN"
  },
  {
    "Lattitude": -38.01468,
    "Longtitude": 145.09789,
    "Postcode": 3195,
    "Regionname": "South-Eastern Metropolitan",
    "Suburb": "Aspendale",
    "Suburb_Cap": "ASPENDALE"
  },
  {
    "Lattitude": -37.76032,
    "Longtitude": 145.30299,
    "Postcode": 3116,
    "Regionname": "Eastern Victoria",
    "Suburb": "Chirnside Park",
    "Suburb_Cap": "CHIRNSIDE PARK"
  },
  {
    "Lattitude": -37.78021,
    "Longtitude": 145.26367,
    "Postcode": 3136,
    "Regionname": "Eastern Metropolitan",
    "Suburb": "Croydon Hills",
    "Suburb_Cap": "CROYDON HILLS"
  },
  {
    "Lattitude": -37.81263,
    "Longtitude": 145.27588,
    "Postcode": 3136,
    "Regionname": "Eastern Metropolitan",
    "Suburb": "Croydon South",
    "Suburb_Cap": "CROYDON SOUTH"
  },
  {
    "Lattitude": -37.78774,
    "Longtitude": 144.76019,
    "Postcode": 3030,
    "Regionname": "Western Metropolitan",
    "Suburb": "Derrimut",
    "Suburb_Cap": "DERRIMUT"
  },
  {
    "Lattitude": -37.6204,
    "Longtitude": 144.71138,
    "Postcode": 3427,
    "Regionname": "Western Metropolitan",
    "Suburb": "Diggers Rest",
    "Suburb_Cap": "DIGGERS REST"
  },
  {
    "Lattitude": -38.03548,
    "Longtitude": 145.11763,
    "Postcode": 3196,
    "Regionname": "South-Eastern Metropolitan",
    "Suburb": "Edithvale",
    "Suburb_Cap": "EDITHVALE"
  },
  {
    "Lattitude": -38.03378,
    "Longtitude": 145.2621,
    "Postcode": 3976,
    "Regionname": "South-Eastern Metropolitan",
    "Suburb": "Hampton Park",
    "Suburb_Cap": "HAMPTON PARK"
  },
  {
    "Lattitude": -37.87695,
    "Longtitude": 145.2547,
    "Postcode": 3180,
    "Regionname": "Eastern Metropolitan",
    "Suburb": "Knoxfield",
    "Suburb_Cap": "KNOXFIELD"
  },
  {
    "Lattitude": -37.68508,
    "Longtitude": 145.1395,
    "Postcode": 3088,
    "Regionname": "Eastern Metropolitan",
    "Suburb": "St Helena",
    "Suburb_Cap": "ST HELENA"
  },
  {
    "Lattitude": -37.91732,
    "Longtitude": 145.33501,
    "Postcode": 3158,
    "Regionname": "Eastern Victoria",
    "Suburb": "Upwey",
    "Suburb_Cap": "UPWEY"
  },
  {
    "Lattitude": -37.67344,
    "Longtitude": 144.43181,
    "Postcode": 3340,
    "Regionname": "Western Victoria",
    "Suburb": "Bacchus Marsh",
    "Suburb_Cap": "BACCHUS MARSH"
  },
  {
    "Lattitude": -37.65879,
    "Longtitude": 144.9296,
    "Postcode": 3048,
    "Regionname": "Northern Metropolitan",
    "Suburb": "Coolaroo",
    "Suburb_Cap": "COOLAROO"
  },
  {
    "Lattitude": -38.07898,
    "Longtitude": 145.3165,
    "Postcode": 3977,
    "Regionname": "South-Eastern Metropolitan",
    "Suburb": "Cranbourne North",
    "Suburb_Cap": "CRANBOURNE NORTH"
  },
  {
    "Lattitude": -37.80467,
    "Longtitude": 145.30297,
    "Postcode": 3137,
    "Regionname": "Eastern Metropolitan",
    "Suburb": "Kilsyth",
    "Suburb_Cap": "KILSYTH"
  },
  {
    "Lattitude": -37.81018,
    "Longtitude": 145.35396,
    "Postcode": 3765,
    "Regionname": "Eastern Victoria",
    "Suburb": "Montrose",
    "Suburb_Cap": "MONTROSE"
  },
  {
    "Lattitude": -38.02608,
    "Longtitude": 145.12784,
    "Postcode": 3195,
    "Regionname": "South-Eastern Metropolitan",
    "Suburb": "Aspendale Gardens",
    "Suburb_Cap": "ASPENDALE GARDENS"
  },
  {
    "Lattitude": -37.50087,
    "Longtitude": 144.48571,
    "Postcode": 3437,
    "Regionname": "Northern Victoria",
    "Suburb": "Bullengarook",
    "Suburb_Cap": "BULLENGAROOK"
  },
  {
    "Lattitude": -37.92801,
    "Longtitude": 145.1057,
    "Postcode": 3169,
    "Regionname": "South-Eastern Metropolitan",
    "Suburb": "Clarinda",
    "Suburb_Cap": "CLARINDA"
  },
  {
    "Lattitude": -37.81007,
    "Longtitude": 145.06792,
    "Postcode": 3103,
    "Regionname": "Southern Metropolitan",
    "Suburb": "Deepdene",
    "Suburb_Cap": "DEEPDENE"
  },
  {
    "Lattitude": -37.7145,
    "Longtitude": 144.77132,
    "Postcode": 3037,
    "Regionname": "Western Metropolitan",
    "Suburb": "Delahey",
    "Suburb_Cap": "DELAHEY"
  },
  {
    "Lattitude": -37.63826,
    "Longtitude": 145.1991,
    "Postcode": 3099,
    "Regionname": "Northern Victoria",
    "Suburb": "Hurstbridge",
    "Suburb_Cap": "HURSTBRIDGE"
  },
  {
    "Lattitude": -37.67028,
    "Longtitude": 144.59455,
    "Postcode": 3337,
    "Regionname": "Northern Victoria",
    "Suburb": "Kurunjang",
    "Suburb_Cap": "KURUNJANG"
  },
  {
    "Lattitude": -37.75912,
    "Longtitude": 145.28886,
    "Postcode": 3115,
    "Regionname": "Eastern Victoria",
    "Suburb": "Wonga Park",
    "Suburb_Cap": "WONGA PARK"
  },
  {
    "Lattitude": -37.96466,
    "Longtitude": 145.27006,
    "Postcode": 3802,
    "Regionname": "South-Eastern Metropolitan",
    "Suburb": "Endeavour Hills",
    "Suburb_Cap": "ENDEAVOUR HILLS"
  },
  {
    "Lattitude": -38.07054,
    "Longtitude": 145.42554,
    "Postcode": 3809,
    "Regionname": "Eastern Victoria",
    "Suburb": "Officer",
    "Suburb_Cap": "OFFICER"
  },
  {
    "Lattitude": -38.01347,
    "Longtitude": 145.12675,
    "Postcode": 3195,
    "Regionname": "South-Eastern Metropolitan",
    "Suburb": "Waterways",
    "Suburb_Cap": "WATERWAYS"
  },
  {
    "Lattitude": -37.78104,
    "Longtitude": 144.80357,
    "Postcode": 3022,
    "Regionname": "Western Metropolitan",
    "Suburb": "Ardeer",
    "Suburb_Cap": "ARDEER"
  },
  {
    "Lattitude": -38.05614,
    "Longtitude": 145.38464,
    "Postcode": 3807,
    "Regionname": "Eastern Victoria",
    "Suburb": "Beaconsfield",
    "Suburb_Cap": "BEACONSFIELD"
  },
  {
    "Lattitude": -37.98031,
    "Longtitude": 145.15497,
    "Postcode": 3172,
    "Regionname": "South-Eastern Metropolitan",
    "Suburb": "Springvale South",
    "Suburb_Cap": "SPRINGVALE SOUTH"
  },
  {
    "Lattitude": -37.65391,
    "Longtitude": 145.37389,
    "Postcode": 3775,
    "Regionname": "Northern Victoria",
    "Suburb": "Yarra Glen",
    "Suburb_Cap": "YARRA GLEN"
  },
  {
    "Lattitude": -37.69104,
    "Longtitude": 144.54532,
    "Postcode": 3338,
    "Regionname": "Western Victoria",
    "Suburb": "Brookfield",
    "Suburb_Cap": "BROOKFIELD"
  },
  {
    "Lattitude": -37.93064,
    "Longtitude": 145.4453,
    "Postcode": 3782,
    "Regionname": "Eastern Victoria",
    "Suburb": "Emerald",
    "Suburb_Cap": "EMERALD"
  },
  {
    "Lattitude": -37.51232,
    "Longtitude": 145.13282,
    "Postcode": 3757,
    "Regionname": "Northern Victoria",
    "Suburb": "Whittlesea",
    "Suburb_Cap": "WHITTLESEA"
  },
  {
    "Lattitude": -37.75225,
    "Longtitude": 144.7552,
    "Postcode": 3023,
    "Regionname": "Western Metropolitan",
    "Suburb": "Burnside",
    "Suburb_Cap": "BURNSIDE"
  },
  {
    "Lattitude": -37.67379,
    "Longtitude": 144.89826,
    "Postcode": 3049,
    "Regionname": "Northern Metropolitan",
    "Suburb": "Attwood",
    "Suburb_Cap": "ATTWOOD"
  },
  {
    "Lattitude": -37.40853,
    "Longtitude": 144.97749,
    "Postcode": 3756,
    "Regionname": "Northern Victoria",
    "Suburb": "Wallan",
    "Suburb_Cap": "WALLAN"
  },
  {
    "Lattitude": -37.45392,
    "Longtitude": 144.58864,
    "Postcode": 3438,
    "Regionname": "Northern Victoria",
    "Suburb": "New Gisborne",
    "Suburb_Cap": "NEW GISBORNE"
  },
  {
    "Lattitude": -37.71429,
    "Longtitude": 144.72492,
    "Postcode": 3335,
    "Regionname": "Western Metropolitan",
    "Suburb": "Plumpton",
    "Suburb_Cap": "PLUMPTON"
  },
  {
    "Lattitude": -37.87931,
    "Longtitude": 145.41288,
    "Postcode": 3793,
    "Regionname": "Eastern Victoria",
    "Suburb": "Monbulk",
    "Suburb_Cap": "MONBULK"
  }
]